SL-12 R/B(2)            
1 15772U 85042D   26156.54547367  .00000150  00000+0  88702-4 0  9996
2 15772  71.1086 262.1115 0035673 345.5096  25.3134 14.22003725126880
SL-16 R/B               
1 16182U 85097B   26156.83671211  .00000084  00000+0  65823-4 0  9995
2 16182  71.0036 314.9744 0005764 133.9428 329.3861 14.16612062 99718
SL-14 R/B               
1 16496U 86006B   26156.47707965  .00000616  00000+0  62632-4 0  9996
2 16496  82.5263 177.1333 0075857 342.7975  17.0672 14.86933590162255
COSMOS 1743             
1 16719U 86034A   26156.52021297  .00047143  00000+0  46252-3 0  9993
2 16719  82.5285 341.1289 0003799 327.9808  32.1220 15.65862462193962
SL-14 R/B               
1 16792U 86046B   26156.50109048  .00000411  00000+0  44511-4 0  9990
2 16792  82.4818 357.2192 0021732 299.7230  60.1823 14.85663209139449
SL-14 R/B               
1 16882U 86055B   26156.10028733  .00000456  00000+0  49521-4 0  9992
2 16882  82.5213  44.4964 0020008  46.2597  71.6845 14.85714297132344
AJISAI (EGS)            
1 16908U 86061A   26156.89053012 -.00000103  00000+0 -42389-4 0  9998
2 16908  50.0062 182.1333 0011277 151.9628 268.6023 12.44516714478988
SL-14 R/B               
1 17567U 87024B   26156.30063789  .00000387  00000+0  41198-4 0  9997
2 17567  82.5285  10.4242 0017532 335.1588  24.8783 14.86205128101148
COSMOS 1833             
1 17589U 87027A   26156.35716293  .00000273  00000+0  17141-3 0  9998
2 17589  70.9149 141.7350 0022515  74.8644 285.4965 14.13041201 22708
SL-16 R/B               
1 17590U 87027B   26156.85207506  .00000232  00000+0  13891-3 0  9990
2 17590  71.0027  90.7140 0005928 325.9407  34.1335 14.17170717 27831
SL-14 R/B               
1 17912U 87038B   26156.40795541  .00000363  00000+0  39216-4 0  9997
2 17912  82.5017 214.1669 0018000 231.7372 128.2225 14.85437991 92259
COSMOS 1844             
1 17973U 87041A   26156.51005540 -.00000080  00000+0 -16412-4 0  9994
2 17973  70.8989 208.9375 0033278 252.3494 107.3992 14.14570091 16006
SL-14 R/B               
1 18153U 87055B   26156.57163165  .00000508  00000+0  55506-4 0  9994
2 18153  82.4995 266.1781 0022161  83.6757 276.6983 14.85702429 82986
COSMOS 1867             
1 18187U 87060A   26156.81575145 -.00000036  00000+0  24047-4 0  9992
2 18187  65.0115  59.9047 0016240 281.9564  77.9700 14.31514534 32553
SL-14 R/B               
1 18749U 88001B   26156.84225189  .00000520  00000+0  57266-4 0  9991
2 18749  82.5123 112.4464 0016794 310.4151  49.5599 14.85601245 55115
COSMOS 1933             
1 18958U 88020A   26156.50697963  .00004017  00000+0  19263-3 0  9999
2 18958  82.5117 164.0014 0002354 238.4265 121.6740 15.18636298 63556
SL-3 R/B                
1 19046U 88032B   26156.86026088  .00005063  00000+0  23155-3 0  9991
2 19046  97.5254 139.9135 0023740 287.6784  72.1860 15.20753198 65504
SL-16 R/B               
1 19120U 88039B   26156.49460295  .00000139  00000+0  88318-4 0  9994
2 19120  71.0150 242.8815 0022890 210.3629 149.6172 14.19628272970843
COSMOS 1953             
1 19210U 88050A   26156.83432376  .00009168  00000+0  31586-3 0  9999
2 19210  82.5079  69.4805 0011133 162.1034 198.0601 15.29813943 51257
SL-8 R/B                
1 19257U 88053B   26156.82157025  .00000296  00000+0  10412-3 0  9995
2 19257  74.0476 310.0083 0019270 109.5394 358.7067 14.38963107989272
COSMOS 1975             
1 19573U 88093A   26156.04909660  .00007632  00000+0  26819-3 0  9993
2 19573  82.5199  29.9102 0010152 215.5540 144.5025 15.29163435 32752
SL-14 R/B               
1 19574U 88093B   26156.83460353  .00000536  00000+0  58612-4 0  9995
2 19574  82.5304 319.3042 0022145 105.4264  15.1155 14.85733125 14101
SL-16 R/B               
1 19650U 88102B   26156.84502529  .00000049  00000+0  48837-4 0  9991
2 19650  71.0003 326.0047 0016135 240.7480 119.2031 14.16166534939372
INTERCOSMOS 24          
1 20261U 89080A   26156.97652213  .00000999  00000+0  28480-3 0  9992
2 20261  82.6075  46.9382 1188314  87.8950 285.7456 12.59644004677918
SL-14 R/B               
1 20262U 89080C   26156.64285859  .00000509  00000+0  15163-3 0  9996
2 20262  82.5915 116.7235 1229420 343.8134  12.6734 12.50562345671140
DELTA 1 R/B             
1 20323U 89089B   26156.49383193  .00000367  00000+0  99479-4 0  9991
2 20323  97.0640 349.9229 0068244 203.9781 155.8235 14.50723342908467
ARIANE 40 R/B           
1 20443U 90005H   26156.44012457  .00000272  00000+0  99816-4 0  9991
2 20443  98.2964 214.4209 0008947 304.8596  55.1751 14.39921042905438
DELTA 2 R/B(1)          
1 20453U 90008B   26156.15618110  .00072469  00000+0  57438-3 0  9991
2 20453  35.6010 316.0350 0068569   0.5078 359.5722 15.66926227939812
COSMOS 2058             
1 20465U 90010A   26156.81861802  .00003868  00000+0  22383-3 0  9996
2 20465  82.4665 320.5681 0010507  37.9271 322.2697 15.11938080955553
