OBJECT_NAME,OBJECT_ID,EPOCH,MEAN_MOTION,ECCENTRICITY,INCLINATION,RA_OF_ASC_NODE,ARG_OF_PERICENTER,MEAN_ANOMALY,EPHEMERIS_TYPE,CLASSIFICATION_TYPE,NORAD_CAT_ID,ELEMENT_SET_NO,REV_AT_EPOCH,BSTAR,MEAN_MOTION_DOT,MEAN_MOTION_DDOT
SL-12 R/B(2),1985-042D,2026-06-05T13:05:28.925088,14.22003725,.00356739,71.1086,262.1115,345.5096,25.3134,0,U,15772,999,12688,.88701791E-4,.15E-5,0
SL-16 R/B,1985-097B,2026-06-05T20:04:51.926304,14.16612062,.00057649,71.0036,314.9744,133.9428,329.3861,0,U,16182,999,9971,.65822635E-4,.84E-6,0
SL-14 R/B,1986-006B,2026-06-05T11:26:59.681760,14.86933590,.0075857,82.5263,177.1333,342.7975,17.0672,0,U,16496,999,16225,.62631543E-4,.616E-5,0
COSMOS 1743,1986-034A,2026-06-05T12:29:06.400608,15.65862462,.0003799,82.5285,341.1289,327.9808,32.1220,0,U,16719,999,19396,.46252151E-3,.47143E-3,0
SL-14 R/B,1986-046B,2026-06-05T12:01:34.217472,14.85663209,.00217329,82.4818,357.2192,299.7230,60.1823,0,U,16792,999,13944,.44510964E-4,.411E-5,0
SL-14 R/B,1986-055B,2026-06-05T02:24:24.825312,14.85714297,.0020008,82.5213,44.4964,46.2597,71.6845,0,U,16882,999,13234,.49521E-4,.456E-5,0
AJISAI (EGS),1986-061A,2026-06-05T21:22:21.802368,12.44516714,.0011277,50.0062,182.1333,151.9628,268.6023,0,U,16908,999,47898,-.42389E-4,-.103E-5,0
SL-14 R/B,1987-024B,2026-06-05T07:12:55.113696,14.86205128,.00175321,82.5285,10.4242,335.1588,24.8783,0,U,17567,999,10114,.41198334E-4,.387E-5,0
COSMOS 1833,1987-027A,2026-06-05T08:34:18.877152,14.13041201,.00225154,70.9149,141.7350,74.8644,285.4965,0,U,17589,999,2270,.17140891E-3,.273E-5,0
SL-16 R/B,1987-027B,2026-06-05T20:26:59.285184,14.17170717,.0005929,71.0027,90.7140,325.9407,34.1335,0,U,17590,999,2783,.13891E-3,.232E-5,0
SL-14 R/B,1987-038B,2026-06-05T09:47:27.347424,14.85437991,.00180001,82.5017,214.1669,231.7372,128.2225,0,U,17912,999,9225,.39215814E-4,.363E-5,0
COSMOS 1844,1987-041A,2026-06-05T12:14:28.786560,14.14570091,.00332787,70.8989,208.9375,252.3494,107.3992,0,U,17973,999,1600,-.16412011E-4,-.8E-6,0
SL-14 R/B,1987-055B,2026-06-05T13:43:08.974560,14.85702429,.00221614,82.4995,266.1781,83.6757,276.6983,0,U,18153,999,8298,.55506227E-4,.508E-5,0
COSMOS 1867,1987-060A,2026-06-05T19:34:40.925280,14.31514534,.00162409,65.0115,59.9047,281.9564,77.9700,0,U,18187,999,3255,.24046752E-4,-.36E-6,0
SL-14 R/B,1988-001B,2026-06-05T20:12:50.563296,14.85601245,.0016794,82.5123,112.4464,310.4151,49.5599,0,U,18749,999,5511,.57266E-4,.52E-5,0
COSMOS 1933,1988-020A,2026-06-05T12:10:03.040032,15.18636298,.00023544,82.5117,164.0014,238.4265,121.6740,0,U,18958,999,6355,.19263042E-3,.4017E-4,0
SL-3 R/B,1988-032B,2026-06-05T20:38:46.540032,15.20753198,.002374,97.5254,139.9135,287.6784,72.1860,0,U,19046,999,6550,.23155E-3,.5063E-4,0
SL-16 R/B,1988-039B,2026-06-05T11:52:13.694880,14.19628272,.00228908,71.0150,242.8815,210.3629,149.6172,0,U,19120,999,97084,.88317646E-4,.139E-5,0
COSMOS 1953,1988-050A,2026-06-05T20:01:25.572864,15.29813943,.0011133,82.5079,69.4805,162.1034,198.0601,0,U,19210,999,5125,.31586E-3,.9168E-4,0
SL-8 R/B,1988-053B,2026-06-05T19:43:03.669600,14.38963107,.00192708,74.0476,310.0083,109.5394,358.7067,0,U,19257,999,98927,.10412374E-3,.296E-5,0
COSMOS 1975,1988-093A,2026-06-05T01:10:41.946240,15.29163435,.00101524,82.5199,29.9102,215.5540,144.5025,0,U,19573,999,3275,.26818832E-3,.7632E-4,0
SL-14 R/B,1988-093B,2026-06-05T20:01:49.744992,14.85733125,.00221453,82.5304,319.3042,105.4264,15.1155,0,U,19574,999,1410,.5861193E-4,.536E-5,0
SL-16 R/B,1988-102B,2026-06-05T20:16:50.185056,14.16166534,.0016135,71.0003,326.0047,240.7480,119.2031,0,U,19650,999,93937,.48837E-4,.49E-6,0
INTERCOSMOS 24,1989-080A,2026-06-05T23:26:11.512032,12.59644004,.1188314,82.6075,46.9382,87.8950,285.7456,0,U,20261,999,67791,.2848E-3,.999E-5,0
SL-14 R/B,1989-080C,2026-06-05T15:25:42.982176,12.50562345,.12294207,82.5915,116.7235,343.8134,12.6734,0,U,20262,999,67114,.15163012E-3,.509E-5,0
DELTA 1 R/B,1989-089B,2026-06-05T11:51:07.078752,14.50723342,.00682444,97.0640,349.9229,203.9781,155.8235,0,U,20323,999,90846,.99478861E-4,.367E-5,0
ARIANE 40 R/B,1990-005H,2026-06-05T10:33:46.762848,14.39921042,.0008947,98.2964,214.4209,304.8596,55.1751,0,U,20443,999,90543,.99815821E-4,.272E-5,0
DELTA 2 R/B(1),1990-008B,2026-06-05T03:44:54.047040,15.66926227,.00685694,35.6010,316.0350,0.5078,359.5722,0,U,20453,999,93981,.57437901E-3,.72469E-3,0
COSMOS 2058,1990-010A,2026-06-05T19:38:48.596064,15.11938080,.0010507,82.4665,320.5681,37.9271,322.2697,0,U,20465,999,95555,.22383E-3,.3868E-4,0
